ORBCOMM FM103           
1 40091U 14040F   24344.14721303  .00001673  00000+0  40102-3 0  9997
2 40091  47.0039 194.9043 0001818 145.6149 214.4854 14.57539039553431
ORBCOMM FM114           
1 41179U 15081A   24343.83317818  .00002482  00000+0  57628-3 0  9998
2 41179  47.0012 105.5567 0002887 216.6292 143.4396 14.57596059476693
ORBCOMM FM119           
1 41180U 15081B   24343.81096132  .00001815  00000+0  43221-3 0  9994
2 41180  47.0011  14.8983 0002218 274.0111  86.0521 14.57515226477942
ORBCOMM FM105           
1 41181U 15081C   24343.73926122  .00000950  00000+0  31524-3 0  9999
2 41181  47.0027   1.8690 0001886 216.5889 143.4863 14.44891128473200
ORBCOMM FM110           
1 41182U 15081D   24344.35761911  .00002417  00000+0  56207-3 0  9997
2 41182  47.0005 102.4600 0001764 308.3613  51.7113 14.57609578476826
ORBCOMM FM118           
1 41183U 15081E   24344.06291313  .00002250  00000+0  52657-3 0  9990
2 41183  47.0029 104.2242 0002204 313.0764  46.9936 14.57533496476784
ORBCOMM FM112           
1 41184U 15081F   24343.78806558  .00002453  00000+0  57088-3 0  9990
2 41184  46.9995  14.1908 0002155 259.4378 100.6265 14.57532946477886
ORBCOMM FM113           
1 41185U 15081G   24343.83406745  .00002358  00000+0  55009-3 0  9996
2 41185  47.0011  14.2766 0002216 276.3757  83.6876 14.57542246477879
