<?xml version="1.0" encoding="UTF-8"?>
<ndm xmlns:xsi="http://www.w3.org/2001/XMLSchema-instance" xsi:noNamespaceSchemaLocation="https://sanaregistry.org/r/ndmxml_unqualified/ndmxml-2.0.0-master-2.0.xsd">
<omm id="CCSDS_OMM_VERS" version="2.0">
<header><CREATION_DATE/><ORIGINATOR/></header><body><segment><metadata><OBJECT_NAME>ORBCOMM FM103</OBJECT_NAME><OBJECT_ID>2014-040F</OBJECT_ID><CENTER_NAME>EARTH</CENTER_NAME><REF_FRAME>TEME</REF_FRAME><TIME_SYSTEM>UTC</TIME_SYSTEM><MEAN_ELEMENT_THEORY>SGP4</MEAN_ELEMENT_THEORY></metadata><data><meanElements><EPOCH>2024-12-09T03:31:59.205792</EPOCH><MEAN_MOTION>14.57539039</MEAN_MOTION><ECCENTRICITY>.0001818</ECCENTRICITY><INCLINATION>47.0039</INCLINATION><RA_OF_ASC_NODE>194.9043</RA_OF_ASC_NODE><ARG_OF_PERICENTER>145.6149</ARG_OF_PERICENTER><MEAN_ANOMALY>214.4854</MEAN_ANOMALY></meanElements><tleParameters><EPHEMERIS_TYPE>0</EPHEMERIS_TYPE><CLASSIFICATION_TYPE>U</CLASSIFICATION_TYPE><NORAD_CAT_ID>40091</NORAD_CAT_ID><ELEMENT_SET_NO>999</ELEMENT_SET_NO><REV_AT_EPOCH>55343</REV_AT_EPOCH><BSTAR>.40102E-3</BSTAR><MEAN_MOTION_DOT>.1673E-4</MEAN_MOTION_DOT><MEAN_MOTION_DDOT>0</MEAN_MOTION_DDOT></tleParameters></data></segment></body></omm>
<omm id="CCSDS_OMM_VERS" version="2.0">
<header><CREATION_DATE/><ORIGINATOR/></header><body><segment><metadata><OBJECT_NAME>ORBCOMM FM114</OBJECT_NAME><OBJECT_ID>2015-081A</OBJECT_ID><CENTER_NAME>EARTH</CENTER_NAME><REF_FRAME>TEME</REF_FRAME><TIME_SYSTEM>UTC</TIME_SYSTEM><MEAN_ELEMENT_THEORY>SGP4</MEAN_ELEMENT_THEORY></metadata><data><meanElements><EPOCH>2024-12-08T19:59:46.594752</EPOCH><MEAN_MOTION>14.57596059</MEAN_MOTION><ECCENTRICITY>.0002887</ECCENTRICITY><INCLINATION>47.0012</INCLINATION><RA_OF_ASC_NODE>105.5567</RA_OF_ASC_NODE><ARG_OF_PERICENTER>216.6292</ARG_OF_PERICENTER><MEAN_ANOMALY>143.4396</MEAN_ANOMALY></meanElements><tleParameters><EPHEMERIS_TYPE>0</EPHEMERIS_TYPE><CLASSIFICATION_TYPE>U</CLASSIFICATION_TYPE><NORAD_CAT_ID>41179</NORAD_CAT_ID><ELEMENT_SET_NO>999</ELEMENT_SET_NO><REV_AT_EPOCH>47669</REV_AT_EPOCH><BSTAR>.57628E-3</BSTAR><MEAN_MOTION_DOT>.2482E-4</MEAN_MOTION_DOT><MEAN_MOTION_DDOT>0</MEAN_MOTION_DDOT></tleParameters></data></segment></body></omm>
<omm id="CCSDS_OMM_VERS" version="2.0">
<header><CREATION_DATE/><ORIGINATOR/></header><body><segment><metadata><OBJECT_NAME>ORBCOMM FM119</OBJECT_NAME><OBJECT_ID>2015-081B</OBJECT_ID><CENTER_NAME>EARTH</CENTER_NAME><REF_FRAME>TEME</REF_FRAME><TIME_SYSTEM>UTC</TIME_SYSTEM><MEAN_ELEMENT_THEORY>SGP4</MEAN_ELEMENT_THEORY></metadata><data><meanElements><EPOCH>2024-12-08T19:27:47.058048</EPOCH><MEAN_MOTION>14.57515226</MEAN_MOTION><ECCENTRICITY>.0002218</ECCENTRICITY><INCLINATION>47.0011</INCLINATION><RA_OF_ASC_NODE>14.8983</RA_OF_ASC_NODE><ARG_OF_PERICENTER>274.0111</ARG_OF_PERICENTER><MEAN_ANOMALY>86.0521</MEAN_ANOMALY></meanElements><tleParameters><EPHEMERIS_TYPE>0</EPHEMERIS_TYPE><CLASSIFICATION_TYPE>U</CLASSIFICATION_TYPE><NORAD_CAT_ID>41180</NORAD_CAT_ID><ELEMENT_SET_NO>999</ELEMENT_SET_NO><REV_AT_EPOCH>47794</REV_AT_EPOCH><BSTAR>.43221E-3</BSTAR><MEAN_MOTION_DOT>.1815E-4</MEAN_MOTION_DOT><MEAN_MOTION_DDOT>0</MEAN_MOTION_DDOT></tleParameters></data></segment></body></omm>
<omm id="CCSDS_OMM_VERS" version="2.0">
<header><CREATION_DATE/><ORIGINATOR/></header><body><segment><metadata><OBJECT_NAME>ORBCOMM FM105</OBJECT_NAME><OBJECT_ID>2015-081C</OBJECT_ID><CENTER_NAME>EARTH</CENTER_NAME><REF_FRAME>TEME</REF_FRAME><TIME_SYSTEM>UTC</TIME_SYSTEM><MEAN_ELEMENT_THEORY>SGP4</MEAN_ELEMENT_THEORY></metadata><data><meanElements><EPOCH>2024-12-08T17:44:32.169408</EPOCH><MEAN_MOTION>14.44891128</MEAN_MOTION><ECCENTRICITY>.0001886</ECCENTRICITY><INCLINATION>47.0027</INCLINATION><RA_OF_ASC_NODE>1.8690</RA_OF_ASC_NODE><ARG_OF_PERICENTER>216.5889</ARG_OF_PERICENTER><MEAN_ANOMALY>143.4863</MEAN_ANOMALY></meanElements><tleParameters><EPHEMERIS_TYPE>0</EPHEMERIS_TYPE><CLASSIFICATION_TYPE>U</CLASSIFICATION_TYPE><NORAD_CAT_ID>41181</NORAD_CAT_ID><ELEMENT_SET_NO>999</ELEMENT_SET_NO><REV_AT_EPOCH>47320</REV_AT_EPOCH><BSTAR>.31524E-3</BSTAR><MEAN_MOTION_DOT>.95E-5</MEAN_MOTION_DOT><MEAN_MOTION_DDOT>0</MEAN_MOTION_DDOT></tleParameters></data></segment></body></omm>
<omm id="CCSDS_OMM_VERS" version="2.0">
<header><CREATION_DATE/><ORIGINATOR/></header><body><segment><metadata><OBJECT_NAME>ORBCOMM FM110</OBJECT_NAME><OBJECT_ID>2015-081D</OBJECT_ID><CENTER_NAME>EARTH</CENTER_NAME><REF_FRAME>TEME</REF_FRAME><TIME_SYSTEM>UTC</TIME_SYSTEM><MEAN_ELEMENT_THEORY>SGP4</MEAN_ELEMENT_THEORY></metadata><data><meanElements><EPOCH>2024-12-09T08:34:58.291104</EPOCH><MEAN_MOTION>14.57609578</MEAN_MOTION><ECCENTRICITY>.0001764</ECCENTRICITY><INCLINATION>47.0005</INCLINATION><RA_OF_ASC_NODE>102.4600</RA_OF_ASC_NODE><ARG_OF_PERICENTER>308.3613</ARG_OF_PERICENTER><MEAN_ANOMALY>51.7113</MEAN_ANOMALY></meanElements><tleParameters><EPHEMERIS_TYPE>0</EPHEMERIS_TYPE><CLASSIFICATION_TYPE>U</CLASSIFICATION_TYPE><NORAD_CAT_ID>41182</NORAD_CAT_ID><ELEMENT_SET_NO>999</ELEMENT_SET_NO><REV_AT_EPOCH>47682</REV_AT_EPOCH><BSTAR>.56207E-3</BSTAR><MEAN_MOTION_DOT>.2417E-4</MEAN_MOTION_DOT><MEAN_MOTION_DDOT>0</MEAN_MOTION_DDOT></tleParameters></data></segment></body></omm>
<omm id="CCSDS_OMM_VERS" version="2.0">
<header><CREATION_DATE/><ORIGINATOR/></header><body><segment><metadata><OBJECT_NAME>ORBCOMM FM118</OBJECT_NAME><OBJECT_ID>2015-081E</OBJECT_ID><CENTER_NAME>EARTH</CENTER_NAME><REF_FRAME>TEME</REF_FRAME><TIME_SYSTEM>UTC</TIME_SYSTEM><MEAN_ELEMENT_THEORY>SGP4</MEAN_ELEMENT_THEORY></metadata><data><meanElements><EPOCH>2024-12-09T01:30:35.694432</EPOCH><MEAN_MOTION>14.57533496</MEAN_MOTION><ECCENTRICITY>.0002204</ECCENTRICITY><INCLINATION>47.0029</INCLINATION><RA_OF_ASC_NODE>104.2242</RA_OF_ASC_NODE><ARG_OF_PERICENTER>313.0764</ARG_OF_PERICENTER><MEAN_ANOMALY>46.9936</MEAN_ANOMALY></meanElements><tleParameters><EPHEMERIS_TYPE>0</EPHEMERIS_TYPE><CLASSIFICATION_TYPE>U</CLASSIFICATION_TYPE><NORAD_CAT_ID>41183</NORAD_CAT_ID><ELEMENT_SET_NO>999</ELEMENT_SET_NO><REV_AT_EPOCH>47678</REV_AT_EPOCH><BSTAR>.52657E-3</BSTAR><MEAN_MOTION_DOT>.225E-4</MEAN_MOTION_DOT><MEAN_MOTION_DDOT>0</MEAN_MOTION_DDOT></tleParameters></data></segment></body></omm>
<omm id="CCSDS_OMM_VERS" version="2.0">
<header><CREATION_DATE/><ORIGINATOR/></header><body><segment><metadata><OBJECT_NAME>ORBCOMM FM112</OBJECT_NAME><OBJECT_ID>2015-081F</OBJECT_ID><CENTER_NAME>EARTH</CENTER_NAME><REF_FRAME>TEME</REF_FRAME><TIME_SYSTEM>UTC</TIME_SYSTEM><MEAN_ELEMENT_THEORY>SGP4</MEAN_ELEMENT_THEORY></metadata><data><meanElements><EPOCH>2024-12-08T18:54:48.866112</EPOCH><MEAN_MOTION>14.57532946</MEAN_MOTION><ECCENTRICITY>.0002155</ECCENTRICITY><INCLINATION>46.9995</INCLINATION><RA_OF_ASC_NODE>14.1908</RA_OF_ASC_NODE><ARG_OF_PERICENTER>259.4378</ARG_OF_PERICENTER><MEAN_ANOMALY>100.6265</MEAN_ANOMALY></meanElements><tleParameters><EPHEMERIS_TYPE>0</EPHEMERIS_TYPE><CLASSIFICATION_TYPE>U</CLASSIFICATION_TYPE><NORAD_CAT_ID>41184</NORAD_CAT_ID><ELEMENT_SET_NO>999</ELEMENT_SET_NO><REV_AT_EPOCH>47788</REV_AT_EPOCH><BSTAR>.57088E-3</BSTAR><MEAN_MOTION_DOT>.2453E-4</MEAN_MOTION_DOT><MEAN_MOTION_DDOT>0</MEAN_MOTION_DDOT></tleParameters></data></segment></body></omm>
<omm id="CCSDS_OMM_VERS" version="2.0">
<header><CREATION_DATE/><ORIGINATOR/></header><body><segment><metadata><OBJECT_NAME>ORBCOMM FM113</OBJECT_NAME><OBJECT_ID>2015-081G</OBJECT_ID><CENTER_NAME>EARTH</CENTER_NAME><REF_FRAME>TEME</REF_FRAME><TIME_SYSTEM>UTC</TIME_SYSTEM><MEAN_ELEMENT_THEORY>SGP4</MEAN_ELEMENT_THEORY></metadata><data><meanElements><EPOCH>2024-12-08T20:01:03.427680</EPOCH><MEAN_MOTION>14.57542246</MEAN_MOTION><ECCENTRICITY>.0002216</ECCENTRICITY><INCLINATION>47.0011</INCLINATION><RA_OF_ASC_NODE>14.2766</RA_OF_ASC_NODE><ARG_OF_PERICENTER>276.3757</ARG_OF_PERICENTER><MEAN_ANOMALY>83.6876</MEAN_ANOMALY></meanElements><tleParameters><EPHEMERIS_TYPE>0</EPHEMERIS_TYPE><CLASSIFICATION_TYPE>U</CLASSIFICATION_TYPE><NORAD_CAT_ID>41185</NORAD_CAT_ID><ELEMENT_SET_NO>999</ELEMENT_SET_NO><REV_AT_EPOCH>47787</REV_AT_EPOCH><BSTAR>.55009E-3</BSTAR><MEAN_MOTION_DOT>.2358E-4</MEAN_MOTION_DOT><MEAN_MOTION_DDOT>0</MEAN_MOTION_DDOT></tleParameters></data></segment></body></omm>

</ndm>
